SIRIUS-1                
1 26390U 00035A   08218.02560604  .00000011  00000-0  10000-3 0  3406
2 26390  61.8503 257.6450 2718846 270.6677  58.7426  1.00276769 29679
SIRIUS-2                
1 26483U 00051A   08218.68372717 -.00000003  00000-0  10000-3 0   684
2 26483  63.6670 137.6555 2716356 267.9850  61.3051  1.00281282 29014
SIRIUS-3                
1 26626U 00077A   08219.35607720 -.00000175  00000-0  10000-3 0  2784
2 26626  63.8284  17.4124 2672293 270.0488  59.6299  1.00281729 28150
XM-2 (ROCK)             
1 26724U 01012A   08219.21778825 -.00000211  00000-0  10000-3 0  4427
2 26724   0.1005 269.1538 0000977  88.5307 310.6184  1.00271203 27139
XM-1 (ROLL)             
1 26761U 01018A   08219.21778807 -.00000211  00000-0  10000-3 0  2208
2 26761   0.0893 268.4998 0000319 147.4044 252.4259  1.00270487 26609
XM-3 (RHYTHM)           
1 28626U 05008A   08219.21779214 -.00000211  00000-0  10000-3 0  4905
2 28626   0.0185  35.2820 0000258 259.8822  13.2605  1.00271458 12649
XM-4 (BLUES)            
1 29520U 06049A   08217.66607213 -.00000035  00000-0  10000-3 0  2510
2 29520   0.0164  60.7249 0000276 271.1744 106.4848  1.00271795  6571
